{
  "norad_id": 58627,
  "name": "STARLINK-31065",
  "history": [
    {
      "epoch": "2026-03-28T21:51:24.641568Z",
      "apogee_km": 483.8749983007774,
      "perigee_km": 482.2218642829621,
      "latitude_deg": 2.603579217045441e-05,
      "longitude_deg": 164.14838990901703,
      "height_km": 482.80832966109074,
      "semi_major_axis_km": 6861.1854312918695,
      "eccentricity": 0.00012047,
      "inclination_deg": 43.003,
      "raan_deg": 318.3254,
      "arg_perigee_deg": 271.1766,
      "mean_anomaly_deg": 88.8948,
      "mean_motion_rev_day": 15.27580222
    },
    {
      "epoch": "2026-03-29T00:59:41.755200Z",
      "apogee_km": 483.96436934164285,
      "perigee_km": 481.82784363228166,
      "latitude_deg": -2.6188159685180722e-05,
      "longitude_deg": 116.2083507475938,
      "height_km": 482.7166081940762,
      "semi_major_axis_km": 6861.0331064869615,
      "eccentricity": 0.0001557,
      "inclination_deg": 43.0019,
      "raan_deg": 317.5856,
      "arg_perigee_deg": 267.6679,
      "mean_anomaly_deg": 92.3994,
      "mean_motion_rev_day": 15.27631094
    }
  ]
}